ION SCV-008             
1 55051U 23001AU  26068.82429008  .00008336  00000+0  31423-3 0  9992
2 55051  97.5676 163.6060 0015192   8.5420 351.6074 15.27226640176169
STARLINK-35025          
1 65430U 25192AC  26068.71707285  .00021902  00000+0  75005-3 0  9999
2 65430  53.1606 232.5559 0000832  84.1219 275.9876 15.30172330 29381
